{"type": "FeatureCollection", "features": [ {"type": "Feature", "properties": {"norad_id": 34738, "name": "COSMOS 2251 DEB", "group": "cosmos-2251-debris", "lat": -28.457386978217613, "lon": -47.57645319772342, "alt_km": 725.1994015679966, "timestamp": "2025-12-23T07:45:09.800188+00:00", "meta": {"OBJECT_NAME": "COSMOS 2251 DEB", "OBJECT_ID": "1993-036ZG", "EPOCH": "2025-12-22T19:45:23.433696", "MEAN_MOTION": 14.46324125, "ECCENTRICITY": 0.00475679, "INCLINATION": 74.0154, "RA_OF_ASC_NODE": 124.4199, "ARG_OF_PERICENTER": 268.8475, "MEAN_ANOMALY": 219.717, "EPHEMERIS_TYPE": 0, "CLASSIFICATION_TYPE": "U", "NORAD_CAT_ID": 34738, "ELEMENT_SET_NO": 999, "REV_AT_EPOCH": 88004, "BSTAR": 0.00028202922, "MEAN_MOTION_DOT": 9.97e-06, "MEAN_MOTION_DDOT": 0}, "tle": {"line1": "1 34738U 93036ZG  25356.82318789  .00000997  00000+0  28203-3 0  9995", "line2": "2 34738  74.0154 124.4199 0047567 268.8475 219.7170 14.46324125880046"}}, "geometry": {"type": "Point", "coordinates": [-47.57645319772342, -28.457386978217613]}}, {"type": "Feature", "properties": {"norad_id": 34750, "name": "COSMOS 2251 DEB", "group": "cosmos-2251-debris", "lat": -39.45848072114935, "lon": 15.165733155513815, "alt_km": 694.6929794809685, "timestamp": "2025-12-23T07:45:09.800198+00:00", "meta": {"OBJECT_NAME": "COSMOS 2251 DEB", "OBJECT_ID": "1993-036ZU", "EPOCH": "2025-12-22T12:48:37.447200", "MEAN_MOTION": 14.61412176, "ECCENTRICITY": 0.0038418, "INCLINATION": 74.1065, "RA_OF_ASC_NODE": 183.1044, "ARG_OF_PERICENTER": 132.8514, "MEAN_ANOMALY": 257.3018, "EPHEMERIS_TYPE": 0, "CLASSIFICATION_TYPE": "U", "NORAD_CAT_ID": 34750, "ELEMENT_SET_NO": 999, "REV_AT_EPOCH": 88374, "BSTAR": 0.00113959, "MEAN_MOTION_DOT": 5.675e-05, "MEAN_MOTION_DDOT": 0}, "tle": {"line1": "1 34750U 93036ZU  25356.53376675  .00005675  00000+0  11396-2 0  9997", "line2": "2 34750  74.1065 183.1044 0038418 132.8514 257.3018 14.61412176883742"}}, "geometry": {"type": "Point", "coordinates": [15.165733155513815, -39.45848072114935]}}, {"type": "Feature", "properties": {"norad_id": 34752, "name": "COSMOS 2251 DEB", "group": "cosmos-2251-debris", "lat": 31.86806349933207, "lon": -10.67151841378398, "alt_km": 553.2437139510939, "timestamp": "2025-12-23T07:45:09.800208+00:00", "meta": {"OBJECT_NAME": "COSMOS 2251 DEB", "OBJECT_ID": "1993-036ZW", "EPOCH": "2025-12-22T07:35:48.819264", "MEAN_MOTION": 15.00132407, "ECCENTRICITY": 0.00474669, "INCLINATION": 74.0134, "RA_OF_ASC_NODE": 341.11, "ARG_OF_PERICENTER": 106.4588, "MEAN_ANOMALY": 254.1823, "EPHEMERIS_TYPE": 0, "CLASSIFICATION_TYPE": "U", "NORAD_CAT_ID": 34752, "ELEMENT_SET_NO": 999, "REV_AT_EPOCH": 89993, "BSTAR": 0.0011157999, "MEAN_MOTION_DOT": 0.0001425, "MEAN_MOTION_DDOT": 0}, "tle": {"line1": "1 34752U 93036ZW  25356.31653726  .00014250  00000+0  11158-2 0  9995", "line2": "2 34752  74.0134 341.1100 0047466 106.4588 254.1823 15.00132407899937"}}, "geometry": {"type": "Point", "coordinates": [-10.67151841378398, 31.86806349933207]}}, {"type": "Feature", "properties": {"norad_id": 34754, "name": "COSMOS 2251 DEB", "group": "cosmos-2251-debris", "lat": -71.49799305575797, "lon": 86.87393149448789, "alt_km": 753.5799178247662, "timestamp": "2025-12-23T07:45:09.800218+00:00", "meta": {"OBJECT_NAME": "COSMOS 2251 DEB", "OBJECT_ID": "1993-036ZY", "EPOCH": "2025-12-22T14:01:00.618816", "MEAN_MOTION": 14.40494534, "ECCENTRICITY": 0.00299317, "INCLINATION": 74.0293, "RA_OF_ASC_NODE": 209.393, "ARG_OF_PERICENTER": 323.6263, "MEAN_ANOMALY": 66.4846, "EPHEMERIS_TYPE": 0, "CLASSIFICATION_TYPE": "U", "NORAD_CAT_ID": 34754, "ELEMENT_SET_NO": 999, "REV_AT_EPOCH": 88275, "BSTAR": 0.00017314509, "MEAN_MOTION_DOT": 5.27e-06, "MEAN_MOTION_DDOT": 0}, "tle": {"line1": "1 34754U 93036ZY  25356.58403494  .00000527  00000+0  17315-3 0  9995", "line2": "2 34754  74.0293 209.3930 0029931 323.6263  66.4846 14.40494534882757"}}, "geometry": {"type": "Point", "coordinates": [86.87393149448789, -71.49799305575797]}}, {"type": "Feature", "properties": {"norad_id": 34755, "name": "COSMOS 2251 DEB", "group": "cosmos-2251-debris", "lat": -1.9454911107612332, "lon": 93.57688291274346, "alt_km": 1160.8188451596498, "timestamp": "2025-12-23T07:45:09.800229+00:00", "meta": {"OBJECT_NAME": "COSMOS 2251 DEB", "OBJECT_ID": "1993-036ZZ", "EPOCH": "2025-12-20T18:30:29.240064", "MEAN_MOTION": 13.50572591, "ECCENTRICITY": 0.04081275, "INCLINATION": 73.9255, "RA_OF_ASC_NODE": 277.1155, "ARG_OF_PERICENTER": 295.5233, "MEAN_ANOMALY": 88.1239, "EPHEMERIS_TYPE": 0, "CLASSIFICATION_TYPE": "U", "NORAD_CAT_ID": 34755, "ELEMENT_SET_NO": 999, "REV_AT_EPOCH": 82632, "BSTAR": 0.00057435404, "MEAN_MOTION_DOT": 5.95e-06, "MEAN_MOTION_DDOT": 0}, "tle": {"line1": "1 34755U 93036ZZ  25354.77117176  .00000595  00000+0  57435-3 0  9996", "line2": "2 34755  73.9255 277.1155 0408127 295.5233  88.1239 13.50572591826326"}}, "geometry": {"type": "Point", "coordinates": [93.57688291274346, -1.9454911107612332]}}, {"type": "Feature", "properties": {"norad_id": 34756, "name": "COSMOS 2251 DEB", "group": "cosmos-2251-debris", "lat": 10.00273242236031, "lon": 89.86566898560893, "alt_km": 841.3018687753156, "timestamp": "2025-12-23T07:45:09.800239+00:00", "meta": {"OBJECT_NAME": "COSMOS 2251 DEB", "OBJECT_ID": "1993-036AAA", "EPOCH": "2025-12-22T12:23:20.340096", "MEAN_MOTION": 13.6726693, "ECCENTRICITY": 0.03457457, "INCLINATION": 74.0031, "RA_OF_ASC_NODE": 88.2919, "ARG_OF_PERICENTER": 322.0021, "MEAN_ANOMALY": 35.7148, "EPHEMERIS_TYPE": 0, "CLASSIFICATION_TYPE": "U", "NORAD_CAT_ID": 34756, "ELEMENT_SET_NO": 999, "REV_AT_EPOCH": 83555, "BSTAR": 0.0010168028, "MEAN_MOTION_DOT": 1.267e-05, "MEAN_MOTION_DDOT": 0}, "tle": {"line1": "1 34756U 93036AAA 25356.51620764  .00001267  00000+0  10168-2 0  9991", "line2": "2 34756  74.0031  88.2919 0345745 322.0021  35.7148 13.67266930835554"}}, "geometry": {"type": "Point", "coordinates": [89.86566898560893, 10.00273242236031]}}, {"type": "Feature", "properties": {"norad_id": 34758, "name": "COSMOS 2251 DEB", "group": "cosmos-2251-debris", "lat": 42.497734736550164, "lon": 87.33259422261274, "alt_km": 1035.74284347514, "timestamp": "2025-12-23T07:45:09.800249+00:00", "meta": {"OBJECT_NAME": "COSMOS 2251 DEB", "OBJECT_ID": "1993-036AAC", "EPOCH": "2025-12-22T20:31:05.296224", "MEAN_MOTION": 13.58106442, "ECCENTRICITY": 0.03821896, "INCLINATION": 74.107, "RA_OF_ASC_NODE": 283.2175, "ARG_OF_PERICENTER": 44.5689, "MEAN_ANOMALY": 318.5489, "EPHEMERIS_TYPE": 0, "CLASSIFICATION_TYPE": "U", "NORAD_CAT_ID": 34758, "ELEMENT_SET_NO": 999, "REV_AT_EPOCH": 83047, "BSTAR": 0.0016922073, "MEAN_MOTION_DOT": 1.955e-05, "MEAN_MOTION_DDOT": 0}, "tle": {"line1": "1 34758U 93036AAC 25356.85492241  .00001955  00000+0  16922-2 0  9995", "line2": "2 34758  74.1070 283.2175 0382189  44.5689 318.5489 13.58106442830477"}}, "geometry": {"type": "Point", "coordinates": [87.33259422261274, 42.497734736550164]}}, {"type": "Feature", "properties": {"norad_id": 34760, "name": "COSMOS 2251 DEB", "group": "cosmos-2251-debris", "lat": -20.54944696155662, "lon": 109.62279427859121, "alt_km": 877.9743316129507, "timestamp": "2025-12-23T07:45:09.800259+00:00", "meta": {"OBJECT_NAME": "COSMOS 2251 DEB", "OBJECT_ID": "1993-036AAE", "EPOCH": "2025-12-21T02:27:21.793248", "MEAN_MOTION": 14.19589207, "ECCENTRICITY": 0.00971621, "INCLINATION": 74.0634, "RA_OF_ASC_NODE": 287.4354, "ARG_OF_PERICENTER": 337.728, "MEAN_ANOMALY": 39.9901, "EPHEMERIS_TYPE": 0, "CLASSIFICATION_TYPE": "U", "NORAD_CAT_ID": 34760, "ELEMENT_SET_NO": 999, "REV_AT_EPOCH": 86807, "BSTAR": 0.00035110711, "MEAN_MOTION_DOT": 7.51e-06, "MEAN_MOTION_DDOT": 0}, "tle": {"line1": "1 34760U 93036AAE 25355.10233557  .00000751  00000+0  35111-3 0  9993", "line2": "2 34760  74.0634 287.4354 0097162 337.7280  39.9901 14.19589207868070"}}, "geometry": {"type": "Point", "coordinates": [109.62279427859121, -20.54944696155662]}}, {"type": "Feature", "properties": {"norad_id": 34761, "name": "COSMOS 2251 DEB", "group": "cosmos-2251-debris", "lat": 67.3842504882632, "lon": 119.85674310388472, "alt_km": 758.6081258413651, "timestamp": "2025-12-23T07:45:09.800269+00:00", "meta": {"OBJECT_NAME": "COSMOS 2251 DEB", "OBJECT_ID": "1993-036AAF", "EPOCH": "2025-12-22T06:13:11.730720", "MEAN_MOTION": 14.38082113, "ECCENTRICITY": 0.00369228, "INCLINATION": 74.0285, "RA_OF_ASC_NODE": 345.2476, "ARG_OF_PERICENTER": 16.6856, "MEAN_ANOMALY": 343.5503, "EPHEMERIS_TYPE": 0, "CLASSIFICATION_TYPE": "U", "NORAD_CAT_ID": 34761, "ELEMENT_SET_NO": 999, "REV_AT_EPOCH": 87786, "BSTAR": 0.00058755109, "MEAN_MOTION_DOT": 1.768e-05, "MEAN_MOTION_DDOT": 0}, "tle": {"line1": "1 34761U 93036AAF 25356.25916355  .00001768  00000+0  58755-3 0  9993", "line2": "2 34761  74.0285 345.2476 0036922  16.6856 343.5503 14.38082113877864"}}, "geometry": {"type": "Point", "coordinates": [119.85674310388472, 67.3842504882632]}}, {"type": "Feature", "properties": {"norad_id": 34784, "name": "COSMOS 2251 DEB", "group": "cosmos-2251-debris", "lat": 54.29484182832562, "lon": 100.58080404679289, "alt_km": 651.0134411747849, "timestamp": "2025-12-23T07:45:09.800279+00:00", "meta": {"OBJECT_NAME": "COSMOS 2251 DEB", "OBJECT_ID": "1993-036AAM", "EPOCH": "2025-12-22T03:15:24.680448", "MEAN_MOTION": 14.60818726, "ECCENTRICITY": 0.00491808, "INCLINATION": 74.0079, "RA_OF_ASC_NODE": 306.3699, "ARG_OF_PERICENTER": 112.8499, "MEAN_ANOMALY": 247.7872, "EPHEMERIS_TYPE": 0, "CLASSIFICATION_TYPE": "U", "NORAD_CAT_ID": 34784, "ELEMENT_SET_NO": 999, "REV_AT_EPOCH": 88672, "BSTAR": 0.00046694369, "MEAN_MOTION_DOT": 2.29e-05, "MEAN_MOTION_DDOT": 0}, "tle": {"line1": "1 34784U 93036AAM 25356.13570232  .00002290  00000+0  46694-3 0  9995", "line2": "2 34784  74.0079 306.3699 0049180 112.8499 247.7872 14.60818726886728"}}, "geometry": {"type": "Point", "coordinates": [100.58080404679289, 54.29484182832562]}}]}